{
  "norad_id": 52614,
  "name": "STARLINK-3982",
  "history": [
    {
      "epoch": "2026-03-28T10:35:23.193888",
      "apogee_km": 421.68920001091465,
      "perigee_km": 415.8903339703893,
      "latitude_deg": 9.839450231110177,
      "longitude_deg": -156.24089568015188,
      "semi_major_axis_km": 6796.926766990651,
      "eccentricity": 0.00042658,
      "inclination_deg": 53.2099,
      "raan_deg": 140.5878,
      "arg_perigee_deg": 27.6006,
      "mean_anomaly_deg": 332.5229,
      "mean_motion_rev_day": 15.49294132
    }
  ]
}