{"fetched_at":"2026-03-29T02:12:04Z","count":15717,"tles":[{"name":"STARLINK-3982","line1":"1 52614U 22052S   26087.44124067  .00061502  00000+0  11055-2 0  9997","line2":"2 52614  53.2099 140.5878 0004265  27.6006 332.5229 15.49294132214451","category":"Starlink"}]}